{"type": "FeatureCollection", "features": [{"type": "Feature", "properties": {"norad_id": 22490, "name": "SCD 1", "group": "resource", "lat": 20.542889989191803, "lon": -56.76883229239436, "alt_km": 711.2730913460455, "timestamp": "2025-12-17T10:52:54.005293+00:00", "meta": {"OBJECT_NAME": "SCD 1", "OBJECT_ID": "1993-009B", "EPOCH": "2025-12-16T10:31:17.846400", "MEAN_MOTION": 14.46001751, "ECCENTRICITY": 0.00419576, "INCLINATION": 24.969, "RA_OF_ASC_NODE": 255.8555, "ARG_OF_PERICENTER": 4.247, "MEAN_ANOMALY": 157.3009, "EPHEMERIS_TYPE": 0, "CLASSIFICATION_TYPE": "U", "NORAD_CAT_ID": 22490, "ELEMENT_SET_NO": 999, "REV_AT_EPOCH": 73463, "BSTAR": 8.7018885e-05, "MEAN_MOTION_DOT": 5.03e-06, "MEAN_MOTION_DDOT": 0}, "tle": {"line1": "1 22490U 93009B   25350.43840100  .00000503  00000+0  87019-4 0  9999", "line2": "2 22490  24.9690 255.8555 0041957   4.2470 157.3009 14.46001751734634"}}, "geometry": {"type": "Point", "coordinates": [-56.76883229239436, 20.542889989191803]}}, {"type": "Feature", "properties": {"norad_id": 25397, "name": "TECHSAT 1B (GO-32)", "group": "resource", "lat": -25.843136148628243, "lon": 150.37570259828513, "alt_km": 817.457995203963, "timestamp": "2025-12-17T10:52:54.005321+00:00", "meta": {"OBJECT_NAME": "TECHSAT 1B (GO-32)", "OBJECT_ID": "1998-043D", "EPOCH": "2025-12-16T22:06:57.699360", "MEAN_MOTION": 14.24378325, "ECCENTRICITY": 0.00019394, "INCLINATION": 98.9923, "RA_OF_ASC_NODE": 334.2302, "ARG_OF_PERICENTER": 50.656, "MEAN_ANOMALY": 309.479, "EPHEMERIS_TYPE": 0, "CLASSIFICATION_TYPE": "U", "NORAD_CAT_ID": 25397, "ELEMENT_SET_NO": 999, "REV_AT_EPOCH": 42538, "BSTAR": 5.5557543e-05, "MEAN_MOTION_DOT": 8.2e-07, "MEAN_MOTION_DDOT": 0}, "tle": {"line1": "1 25397U 98043D   25350.92150115  .00000082  00000+0  55558-4 0  9990", "line2": "2 25397  98.9923 334.2302 0001939  50.6560 309.4790 14.24378325425382"}}, "geometry": {"type": "Point", "coordinates": [150.37570259828513, -25.843136148628243]}}, {"type": "Feature", "properties": {"norad_id": 25504, "name": "SCD 2", "group": "resource", "lat": 24.434073111893902, "lon": -169.94596073730693, "alt_km": 731.8604611960855, "timestamp": "2025-12-17T10:52:54.005336+00:00", "meta": {"OBJECT_NAME": "SCD 2", "OBJECT_ID": "1998-060A", "EPOCH": "2025-12-16T16:23:57.685056", "MEAN_MOTION": 14.45425548, "ECCENTRICITY": 0.00168079, "INCLINATION": 24.994, "RA_OF_ASC_NODE": 117.5789, "ARG_OF_PERICENTER": 355.5058, "MEAN_ANOMALY": 27.3443, "EPHEMERIS_TYPE": 0, "CLASSIFICATION_TYPE": "U", "NORAD_CAT_ID": 25504, "ELEMENT_SET_NO": 999, "REV_AT_EPOCH": 43389, "BSTAR": 6.5363309e-05, "MEAN_MOTION_DOT": 4.16e-06, "MEAN_MOTION_DDOT": 0}, "tle": {"line1": "1 25504U 98060A   25350.68330654  .00000416  00000+0  65363-4 0  9996", "line2": "2 25504  24.9940 117.5789 0016807 355.5058  27.3443 14.45425548433899"}}, "geometry": {"type": "Point", "coordinates": [-169.94596073730693, 24.434073111893902]}}, {"type": "Feature", "properties": {"norad_id": 25757, "name": "DLR-TUBSAT", "group": "resource", "lat": 1.4428583884612718, "lon": 156.33255069039296, "alt_km": 710.667378985725, "timestamp": "2025-12-17T10:52:54.005349+00:00", "meta": {"OBJECT_NAME": "DLR-TUBSAT", "OBJECT_ID": "1999-029B", "EPOCH": "2025-12-16T22:29:19.087008", "MEAN_MOTION": 14.52359362, "ECCENTRICITY": 0.00141675, "INCLINATION": 98.6565, "RA_OF_ASC_NODE": 335.5804, "ARG_OF_PERICENTER": 179.8219, "MEAN_ANOMALY": 180.2983, "EPHEMERIS_TYPE": 0, "CLASSIFICATION_TYPE": "U", "NORAD_CAT_ID": 25757, "ELEMENT_SET_NO": 999, "REV_AT_EPOCH": 40679, "BSTAR": 4.043002e-05, "MEAN_MOTION_DOT": 1.16e-06, "MEAN_MOTION_DDOT": 0}, "tle": {"line1": "1 25757U 99029B   25350.93702647  .00000116  00000+0  40430-4 0  9990", "line2": "2 25757  98.6565 335.5804 0014167 179.8219 180.2983 14.52359362406798"}}, "geometry": {"type": "Point", "coordinates": [156.33255069039296, 1.4428583884612718]}}, {"type": "Feature", "properties": {"norad_id": 25994, "name": "TERRA", "group": "resource", "lat": 25.758759744313938, "lon": 39.086276088058675, "alt_km": 688.077806180354, "timestamp": "2025-12-17T10:52:54.005362+00:00", "meta": {"OBJECT_NAME": "TERRA", "OBJECT_ID": "1999-068A", "EPOCH": "2025-12-16T23:48:19.181088", "MEAN_MOTION": 14.60906801, "ECCENTRICITY": 0.00035862, "INCLINATION": 97.9744, "RA_OF_ASC_NODE": 42.5202, "ARG_OF_PERICENTER": 86.1451, "MEAN_ANOMALY": 34.2468, "EPHEMERIS_TYPE": 0, "CLASSIFICATION_TYPE": "U", "NORAD_CAT_ID": 25994, "ELEMENT_SET_NO": 999, "REV_AT_EPOCH": 38300, "BSTAR": 9.9485699e-05, "MEAN_MOTION_DOT": 4.42e-06, "MEAN_MOTION_DDOT": 0}, "tle": {"line1": "1 25994U 99068A   25350.99188867  .00000442  00000+0  99486-4 0  9991", "line2": "2 25994  97.9744  42.5202 0003586  86.1451  34.2468 14.60906801383009"}}, "geometry": {"type": "Point", "coordinates": [39.086276088058675, 25.758759744313938]}}, {"type": "Feature", "properties": {"norad_id": 27004, "name": "MAROC-TUBSAT", "group": "resource", "lat": -76.40370073289955, "lon": -154.46121497334963, "alt_km": 993.9380266897888, "timestamp": "2025-12-17T10:52:54.005374+00:00", "meta": {"OBJECT_NAME": "MAROC-TUBSAT", "OBJECT_ID": "2001-056D", "EPOCH": "2025-12-16T23:34:11.064864", "MEAN_MOTION": 13.70253151, "ECCENTRICITY": 0.00191306, "INCLINATION": 99.7912, "RA_OF_ASC_NODE": 159.5013, "ARG_OF_PERICENTER": 248.8247, "MEAN_ANOMALY": 226.7307, "EPHEMERIS_TYPE": 0, "CLASSIFICATION_TYPE": "U", "NORAD_CAT_ID": 27004, "ELEMENT_SET_NO": 999, "REV_AT_EPOCH": 20123, "BSTAR": 3.0880491e-05, "MEAN_MOTION_DOT": -1.9e-07, "MEAN_MOTION_DDOT": 0}, "tle": {"line1": "1 27004U 01056D   25350.98207251 -.00000019  00000+0  30880-4 0  9997", "line2": "2 27004  99.7912 159.5013 0019130 248.8247 226.7307 13.70253151201238"}}, "geometry": {"type": "Point", "coordinates": [-154.46121497334963, -76.40370073289955]}}, {"type": "Feature", "properties": {"norad_id": 27424, "name": "AQUA", "group": "resource", "lat": -79.18239906651955, "lon": 3.0966932034828454, "alt_km": 695.4840157081408, "timestamp": "2025-12-17T10:52:54.005386+00:00", "meta": {"OBJECT_NAME": "AQUA", "OBJECT_ID": "2002-022A", "EPOCH": "2025-12-17T00:06:29.077344", "MEAN_MOTION": 14.61819266, "ECCENTRICITY": 0.00012482, "INCLINATION": 98.4041, "RA_OF_ASC_NODE": 311.9529, "ARG_OF_PERICENTER": 113.718, "MEAN_ANOMALY": 322.1616, "EPHEMERIS_TYPE": 0, "CLASSIFICATION_TYPE": "U", "NORAD_CAT_ID": 27424, "ELEMENT_SET_NO": 999, "REV_AT_EPOCH": 25665, "BSTAR": 0.00019502719, "MEAN_MOTION_DOT": 9.25e-06, "MEAN_MOTION_DDOT": 0}, "tle": {"line1": "1 27424U 02022A   25351.00450321  .00000925  00000+0  19503-3 0  9992", "line2": "2 27424  98.4041 311.9529 0001248 113.7180 322.1616 14.61819266256652"}}, "geometry": {"type": "Point", "coordinates": [3.0966932034828454, -79.18239906651955]}}, {"type": "Feature", "properties": {"norad_id": 28051, "name": "IRS-P6 (RESOURCESAT-1)", "group": "resource", "lat": 63.06112210448835, "lon": 15.12041975617228, "alt_km": 774.8206428838139, "timestamp": "2025-12-17T10:52:54.005397+00:00", "meta": {"OBJECT_NAME": "IRS-P6 (RESOURCESAT-1)", "OBJECT_ID": "2003-046A", "EPOCH": "2025-12-17T00:49:26.304672", "MEAN_MOTION": 14.36076467, "ECCENTRICITY": 0.0064361, "INCLINATION": 98.2181, "RA_OF_ASC_NODE": 31.2427, "ARG_OF_PERICENTER": 167.8212, "MEAN_ANOMALY": 251.9179, "EPHEMERIS_TYPE": 0, "CLASSIFICATION_TYPE": "U", "NORAD_CAT_ID": 28051, "ELEMENT_SET_NO": 999, "REV_AT_EPOCH": 15438, "BSTAR": 3.771333e-05, "MEAN_MOTION_DOT": 7.2e-07, "MEAN_MOTION_DDOT": 0}, "tle": {"line1": "1 28051U 03046A   25351.03433223  .00000072  00000+0  37713-4 0  9998", "line2": "2 28051  98.2181  31.2427 0064361 167.8212 251.9179 14.36076467154382"}}, "geometry": {"type": "Point", "coordinates": [15.12041975617228, 63.06112210448835]}}, {"type": "Feature", "properties": {"norad_id": 28220, "name": "SHIYAN-1 (SY-1)", "group": "resource", "lat": 58.80740576370837, "lon": 40.02218536888322, "alt_km": 476.75470090158433, "timestamp": "2025-12-17T10:52:54.005408+00:00", "meta": {"OBJECT_NAME": "SHIYAN-1 (SY-1)", "OBJECT_ID": "2004-012A", "EPOCH": "2025-12-16T17:20:08.697696", "MEAN_MOTION": 15.28250675, "ECCENTRICITY": 0.00054037, "INCLINATION": 97.8939, "RA_OF_ASC_NODE": 52.4961, "ARG_OF_PERICENTER": 309.8005, "MEAN_ANOMALY": 50.2757, "EPHEMERIS_TYPE": 0, "CLASSIFICATION_TYPE": "U", "NORAD_CAT_ID": 28220, "ELEMENT_SET_NO": 999, "REV_AT_EPOCH": 18317, "BSTAR": 0.00041395858, "MEAN_MOTION_DOT": 0.00011322, "MEAN_MOTION_DDOT": 0}, "tle": {"line1": "1 28220U 04012A   25350.72232289  .00011322  00000+0  41396-3 0  9995", "line2": "2 28220  97.8939  52.4961 0005403 309.8005  50.2757 15.28250675183172"}}, "geometry": {"type": "Point", "coordinates": [40.02218536888322, 58.80740576370837]}}, {"type": "Feature", "properties": {"norad_id": 28376, "name": "AURA", "group": "resource", "lat": 32.97962710656007, "lon": -63.7462365660042, "alt_km": 687.5876616832384, "timestamp": "2025-12-17T10:52:54.005419+00:00", "meta": {"OBJECT_NAME": "AURA", "OBJECT_ID": "2004-026A", "EPOCH": "2025-12-16T23:13:23.813472", "MEAN_MOTION": 14.60956767, "ECCENTRICITY": 0.00013079, "INCLINATION": 98.3188, "RA_OF_ASC_NODE": 301.2139, "ARG_OF_PERICENTER": 93.3569, "MEAN_ANOMALY": 266.7781, "EPHEMERIS_TYPE": 0, "CLASSIFICATION_TYPE": "U", "NORAD_CAT_ID": 28376, "ELEMENT_SET_NO": 999, "REV_AT_EPOCH": 13960, "BSTAR": 0.00019980213, "MEAN_MOTION_DOT": 9.31e-06, "MEAN_MOTION_DDOT": 0}, "tle": {"line1": "1 28376U 04026A   25350.96763673  .00000931  00000+0  19980-3 0  9992", "line2": "2 28376  98.3188 301.2139 0001307  93.3569 266.7781 14.60956767139607"}}, "geometry": {"type": "Point", "coordinates": [-63.7462365660042, 32.97962710656007]}}]}